Norby
1 46494U 20068J   22321.88851023  .00003874  00000-0  26814-3 0  9994
2 46494  97.7446 263.7346 0018951 118.8661 241.4467 15.06139081117283